[{"OBJECT_NAME":"ONEWEB-0146","OBJECT_ID":"2020-100AL","EPOCH":"2026-03-09T20:15:52.534656","MEAN_MOTION":13.12441931,"ECCENTRICITY":0.00015161,"INCLINATION":87.9004,"RA_OF_ASC_NODE":10.3764,"ARG_OF_PERICENTER":83.4019,"MEAN_ANOMALY":276.7283,"EPHEMERIS_TYPE":0,"CLASSIFICATION_TYPE":"U","NORAD_CAT_ID":47292,"ELEMENT_SET_NO":999,"REV_AT_EPOCH":25164,"BSTAR":-3.9041849e-5,"MEAN_MOTION_DOT":-1.0e-8,"MEAN_MOTION_DDOT":0},{"OBJECT_NAME":"THOR ABLESTAR DEB","OBJECT_ID":"1961-015GW","EPOCH":"2026-03-09T11:40:58.228320","MEAN_MOTION":13.04836758,"ECCENTRICITY":0.04102528,"INCLINATION":66.5847,"RA_OF_ASC_NODE":75.9693,"ARG_OF_PERICENTER":188.2559,"MEAN_ANOMALY":330.7481,"EPHEMERIS_TYPE":0,"CLASSIFICATION_TYPE":"U","NORAD_CAT_ID":645,"ELEMENT_SET_NO":999,"REV_AT_EPOCH":6680,"BSTAR":0.00063463368,"MEAN_MOTION_DOT":2.44e-6,"MEAN_MOTION_DDOT":0}]
